CCSDS_OMM_VERS,COMMENT,CREATION_DATE,ORIGINATOR,OBJECT_NAME,OBJECT_ID,CENTER_NAME,REF_FRAME,TIME_SYSTEM,MEAN_ELEMENT_THEORY,EPOCH,MEAN_MOTION,ECCENTRICITY,INCLINATION,RA_OF_ASC_NODE,ARG_OF_PERICENTER,MEAN_ANOMALY,EPHEMERIS_TYPE,CLASSIFICATION_TYPE,NORAD_CAT_ID,ELEMENT_SET_NO,REV_AT_EPOCH,BSTAR,MEAN_MOTION_DOT,MEAN_MOTION_DDOT,SEMIMAJOR_AXIS,PERIOD,APOAPSIS,PERIAPSIS,OBJECT_TYPE,RCS_SIZE,COUNTRY_CODE,LAUNCH_DATE,SITE,DECAY_DATE,FILE,GP_ID,TLE_LINE0,TLE_LINE1,TLE_LINE2
"3.0","GENERATED VIA SPACE-TRACK.ORG API","2026-03-18T04:49:44","18 SPCS","ARIANE 1 DEB","1986-019AG","EARTH","TEME","UTC","SGP4","2026-03-17T23:17:18.810240","14.67032255","0.00130358","98.0014","82.8858","192.1177","167.9716","0","U","17153","999","2191","0.00045105665000","0.00002485","0.0000000000000","7048.695","98.157","679.749","661.372","DEBRIS","MEDIUM","FR","1986-02-22","FRGUI","","5089495","316257668","0 ARIANE 1 DEB","1 17153U 86019AG  26076.97035660  .00002485  00000-0  45106-3 0  9996","2 17153  98.0014  82.8858 0013036 192.1177 167.9716 14.67032255 21916"
"3.0","GENERATED VIA SPACE-TRACK.ORG API","2026-03-18T04:49:44","18 SPCS","CZ-4C DEB","2013-037F","EARTH","TEME","UTC","SGP4","2026-03-17T21:55:31.016352","14.75625498","0.00111972","98.0341","81.0141","18.4275","341.7337","0","U","39213","999","67974","0.00013336370000","0.00000859","0.0000000000000","7021.303","97.586","651.030","635.307","DEBRIS","SMALL","PRC","2013-07-19","TSC","","5089495","316267073","0 CZ-4C DEB","1 39213U 13037F   26076.91355343  .00000859  00000-0  13336-3 0  9997","2 39213  98.0341  81.0141 0011197  18.4275 341.7337 14.75625498679748"
"3.0","GENERATED VIA SPACE-TRACK.ORG API","2026-03-18T04:49:44","18 SPCS","DELTA 1 DEB","1975-004AQ","EARTH","TEME","UTC","SGP4","2026-03-17T19:16:39.071136","14.63557761","0.00339560","98.0347","25.3071","358.2054","1.9021","0","U","8958","999","64844","0.00024913577000","0.00001256","0.0000000000000","7059.847","98.390","705.684","657.739","DEBRIS","SMALL","US","1975-01-22","AFWTR","","5089495","316256137","0 DELTA 1 DEB","1 08958U 75004AQ  26076.80322999  .00001256  00000-0  24914-3 0  9996","2 08958  98.0347  25.3071 0033956 358.2054   1.9021 14.63557761648448"
"3.0","GENERATED VIA SPACE-TRACK.ORG API","2026-03-18T04:49:44","18 SPCS","ALOS DEB","2006-002AA","EARTH","TEME","UTC","SGP4","2026-03-17T21:10:58.186560","14.84600029","0.00022881","98.0364","48.5977","97.6417","262.5057","0","U","36571","999","85015","0.00044368190000","0.00003693","0.0000000000000","6992.979","96.996","616.444","613.244","DEBRIS","SMALL","JPN","2006-01-24","TNSTA","","5089495","316266379","0 ALOS DEB","1 36571U 06002AA  26076.88261790  .00003693  00000-0  44368-3 0  9991","2 36571  98.0364  48.5977 0002288  97.6417 262.5057 14.84600029850158"
"3.0","GENERATED VIA SPACE-TRACK.ORG API","2026-03-18T04:49:44","18 SPCS","ARIANE 1 DEB","1986-019LU","EARTH","TEME","UTC","SGP4","2026-03-17T19:03:58.432320","14.55898409","0.00057612","98.0433","103.2818","34.6043","325.5530","0","U","17702","999","6573","0.00032792918000","0.00001396","0.0000000000000","7084.586","98.908","710.532","702.369","DEBRIS","SMALL","FR","1986-02-22","FRGUI","","5089495","316258215","0 ARIANE 1 DEB","1 17702U 86019LU  26076.79442630  .00001396  00000-0  32793-3 0  9993","2 17702  98.0433 103.2818 0005761  34.6043 325.5530 14.55898409 65735"
"3.0","GENERATED VIA SPACE-TRACK.ORG API","2026-03-18T04:49:44","18 SPCS","PSLV DEB","2001-049CS","EARTH","TEME","UTC","SGP4","2026-03-17T23:08:51.389088","14.96095835","0.00353129","98.0468","155.4677","223.7766","309.7565","0","U","27146","999","30285","0.00028931189000","0.00003229","0.0000000000000","6957.110","96.251","603.543","554.408","DEBRIS","SMALL","IND","2001-10-22","SRI","","5089495","316261301","0 PSLV DEB","1 27146U 01049CS  26076.96448367  .00003229  00000-0  28931-3 0  9994","2 27146  98.0468 155.4677 0035313 223.7766 309.7565 14.96095835302853"
"3.0","GENERATED VIA SPACE-TRACK.ORG API","2026-03-17T10:38:38","18 SPCS","FENGYUN 1C DEB","1999-025DQS","EARTH","TEME","UTC","SGP4","2026-03-16T13:14:07.266336","14.66495159","0.00976548","98.0583","106.8141","326.9663","32.5464","0","U","35234","999","95730","0.00076334366000","0.00004489","0.0000000000000","7050.416","98.193","741.132","603.430","DEBRIS","SMALL","PRC","1999-05-10","TSC","","5088757","316183756","0 FENGYUN 1C DEB","1 35234U 99025DQS 26075.55147299  .00004489  00000-0  76334-3 0  9995","2 35234  98.0583 106.8141 0097655 326.9663  32.5464 14.66495159957308"
"3.0","GENERATED VIA SPACE-TRACK.ORG API","2026-03-18T04:49:44","18 SPCS","DELTA 1 DEB","1975-004AH","EARTH","TEME","UTC","SGP4","2026-03-17T17:27:56.575296","14.69902335","0.00301115","98.0597","1.2732","70.0117","290.4327","0","U","8951","999","63787","0.00022488319000","0.00001305","0.0000000000000","7039.517","97.966","682.579","640.185","DEBRIS","SMALL","US","1975-01-22","AFWTR","","5089495","316255636","0 DELTA 1 DEB","1 08951U 75004AH  26076.72773814  .00001305  00000-0  22488-3 0  9995","2 08951  98.0597   1.2732 0030111  70.0117 290.4327 14.69902335637870"
"3.0","GENERATED VIA SPACE-TRACK.ORG API","2026-03-18T04:49:44","18 SPCS","PSLV DEB","2001-049BU","EARTH","TEME","UTC","SGP4","2026-03-17T22:21:04.300992","14.92768969","0.00280888","98.0600","141.4293","350.2599","182.6505","0","U","27124","999","30611","0.00020838791000","0.00002108","0.0000000000000","6967.443","96.465","608.879","569.738","DEBRIS","MEDIUM","IND","2001-10-22","SRI","","5089495","316261797","0 PSLV DEB","1 27124U 01049BU  26076.93129978  .00002108  00000-0  20839-3 0  9995","2 27124  98.0600 141.4293 0028089 350.2599 182.6505 14.92768969306114"
"3.0","GENERATED VIA SPACE-TRACK.ORG API","2026-03-18T04:49:44","18 SPCS","DMSP 5D-2 F12 DEB","1994-057D","EARTH","TEME","UTC","SGP4","2026-03-17T21:02:10.101120","14.95801869","0.00045036","98.0636","118.6600","126.3960","51.3142","0","U","23250","999","65421","0.00149877760000","0.00016699","0.0000000000000","6958.022","96.269","583.021","576.753","DEBRIS","SMALL","US","1994-08-29","AFWTR","","5089495","316259613","0 DMSP 5D-2 F12 DEB","1 23250U 94057D   26076.87650580  .00016699  00000-0  14988-2 0  9990","2 23250  98.0636 118.6600 0004504 126.3960  51.3142 14.95801869654213"
"3.0","GENERATED VIA SPACE-TRACK.ORG API","2026-03-17T17:21:16","18 SPCS","ASTRO F DEB (LENS COVER)","2006-005E","EARTH","TEME","UTC","SGP4","2026-03-17T11:03:44.988768","14.67021827","0.00096266","98.0739","92.0727","137.4302","222.7650","0","U","29054","999","6898","0.00014173608000","0.00000747","0.0000000000000","7048.729","98.158","677.379","663.808","DEBRIS","MEDIUM","JPN","2006-02-21","KSCUT","","5088782","316212864","0 ASTRO F DEB (LENS COVER)","1 29054U 06005E   26076.46093737  .00000747  00000-0  14174-3 0  9999","2 29054  98.0739  92.0727 0009627 137.4302 222.7650 14.67021827 68982"
"3.0","GENERATED VIA SPACE-TRACK.ORG API","2026-03-18T04:49:44","18 SPCS","PAYLOAD A DEB","2013-037J","EARTH","TEME","UTC","SGP4","2026-03-17T23:16:39.468864","14.72594620","0.00090744","98.0859","81.0811","76.1244","284.0973","0","U","39357","999","67885","0.00011536801000","0.00000684","0.0000000000000","7030.934","97.787","659.179","646.419","DEBRIS","LARGE","PRC","2013-07-19","TSC","","5089495","316267123","0 PAYLOAD A DEB","1 39357U 13037J   26076.96990126  .00000684  00000-0  11537-3 0  9992","2 39357  98.0859  81.0811 0009074  76.1244 284.0973 14.72594620678858"
"3.0","GENERATED VIA SPACE-TRACK.ORG API","2026-03-16T02:37:31","18 SPCS","FENGYUN 1C DEB","1999-025CJB","EARTH","TEME","UTC","SGP4","2026-03-15T23:08:46.706208","14.84547947","0.00909012","98.0867","156.7508","75.3876","285.7396","0","U","31837","999","99741","0.00097551444000","0.00008807","0.0000000000000","6993.142","96.999","678.576","551.439","DEBRIS","SMALL","PRC","1999-05-10","TSC","","5087165","316081720","0 FENGYUN 1C DEB","1 31837U 99025CJB 26074.96442947  .00008807  00000-0  97551-3 0  9994","2 31837  98.0867 156.7508 0090901  75.3876 285.7396 14.84547947997412"
"3.0","GENERATED VIA SPACE-TRACK.ORG API","2026-03-18T04:49:44","18 SPCS","PSLV DEB","2001-049CM","EARTH","TEME","UTC","SGP4","2026-03-17T22:15:52.939584","14.90434963","0.00464267","98.0885","127.7871","172.3774","0.3821","0","U","27141","999","30839","0.00017016625000","0.00001630","0.0000000000000","6974.715","96.616","628.962","564.199","DEBRIS","MEDIUM","IND","2001-10-22","SRI","","5089495","316261300","0 PSLV DEB","1 27141U 01049CM  26076.92769606  .00001630  00000-0  17017-3 0  9994","2 27141  98.0885 127.7871 0046427 172.3774   0.3821 14.90434963308392"
"3.0","GENERATED VIA SPACE-TRACK.ORG API","2026-03-18T04:49:44","18 SPCS","FENGYUN 1C DEB","1999-025BCZ","EARTH","TEME","UTC","SGP4","2026-03-17T22:16:16.740192","14.61055226","0.00656523","98.0954","71.4309","98.8409","262.0233","0","U","31007","999","99483","0.00135991990000","0.00006842","0.0000000000000","7067.906","98.559","736.173","643.368","DEBRIS","SMALL","PRC","1999-05-10","TSC","","5089495","316263247","0 FENGYUN 1C DEB","1 31007U 99025BCZ 26076.92797153  .00006842  00000-0  13599-2 0  9999","2 31007  98.0954  71.4309 0065652  98.8409 262.0233 14.61055226994837"
"3.0","GENERATED VIA SPACE-TRACK.ORG API","2026-03-17T17:21:16","18 SPCS","PSLV DEB","2001-049NQ","EARTH","TEME","UTC","SGP4","2026-03-17T09:01:32.990592","14.89537192","0.00527417","98.0955","135.4887","71.4888","289.2050","0","U","27653","999","27563","0.00025368116000","0.00002420","0.0000000000000","6977.518","96.674","636.183","562.582","DEBRIS","SMALL","IND","2001-10-22","SRI","","5088782","316212541","0 PSLV DEB","1 27653U 01049NQ  26076.37607628  .00002420  00000-0  25368-3 0  9992","2 27653  98.0955 135.4887 0052742  71.4888 289.2050 14.89537192275631"
